[
    {
        "Altitude(m)": 624790.8384347216,
        "Argument of Periapsis(deg)": 0.0,
        "Eccentricity": 0.0,
        "Inclination(deg)": 60.0,
        "Latitude(deg)": -59.14724708265851,
        "Longitude(deg)": -88.96539785973007,
        "Mean Anomaly(deg)": -81.8182,
        "RAAN(deg)": 85.00000000000001,
        "Satellite Name": "Test1 391",
        "Satellite Number": 391,
        "Semi-Major Axis(m)": 6980739.136638005,
        "Time(s)": 0
    },
    {
        "Altitude(m)": 624737.4936340158,
        "Argument of Periapsis(deg)": 0.00010418945913296404,
        "Eccentricity": 0.0,
        "Inclination(deg)": 60.0,
        "Latitude(deg)": -58.99470225002082,
        "Longitude(deg)": -87.8458915395884,
        "Mean Anomaly(deg)": -81.19809385453817,
        "RAAN(deg)": 84.99957995086027,
        "Satellite Name": "Test1 391",
        "Satellite Number": 391,
        "Semi-Major Axis(m)": 6980739.136638005,
        "Time(s)": 10
    }
]